H1 CPF 01  gfz 2021 02 14 13  5452 tandemx   
H2 1003001  6202 36605    2021 02 14 12 59 42 2021 02 19 00 00 42   120 1 1  0 0 0
H9
10 0 59260  26622.000000  0    5252235.095  -2491858.676  -3704815.927
10 0 59260  26742.000000  0    4689471.323  -2430680.134  -4430481.124
10 0 59260  26862.000000  0    4046688.711  -2316680.832  -5078550.939
10 0 59260  26982.000000  0    3336059.288  -2150592.892  -5637770.546
10 0 59260  27102.000000  0    2570880.974  -1934268.435  -6098454.352
10 0 59260  27222.000000  0    1765326.046  -1670661.265  -6452643.301
10 0 59260  27342.000000  0     934176.951  -1363785.976  -6694232.484
10 0 59260  27462.000000  0      92556.694  -1018656.082  -6819065.158
10 0 59260  27582.000000  0    -744341.470   -641202.657  -6824996.066
10 0 59260  27702.000000  0   -1561521.631   -238174.517  -6711924.110
10 0 59260  27822.000000  0   -2344447.994    182979.769  -6481793.475
10 0 59260  27942.000000  0   -3079297.158    614245.477  -6138562.999
10 0 59260  28062.000000  0   -3753197.596   1047189.573  -5688146.145
10 0 59260  28182.000000  0   -4354455.245   1473120.771  -5138320.002
10 0 59260  28302.000000  0   -4872759.949   1883259.911  -4498603.104
10 0 59260  28422.000000  0   -5299369.418   2268918.829  -3780101.536
10 0 59260  28542.000000  0   -5627265.168   2621681.512  -2995325.109
10 0 59260  28662.000000  0   -5851278.759   2933585.254  -2157976.687
10 0 59260  28782.000000  0   -5968184.391   3197297.810  -1282715.943
10 0 59260  28902.000000  0   -5976753.824   3406286.200   -384901.452
10 0 59260  29022.000000  0   -5877772.103   3554972.140    519683.582
10 0 59260  29142.000000  0   -5674012.545   3638869.387   1415117.476
10 0 59260  29262.000000  0   -5370169.665   3654699.726   2285629.431
10 0 59260  29382.000000  0   -4972753.763   3600484.495   3115885.695
10 0 59260  29502.000000  0   -4489950.521   3475609.241   3891267.280
10 0 59260  29622.000000  0   -3931447.234   3280859.721   4598133.006
10 0 59260  29742.000000  0   -3308232.498   3018428.504   5224061.006
10 0 59260  29862.000000  0   -2632373.579   2691894.031   5758067.113
10 0 59260  29982.000000  0   -1916775.842   2306170.683   6190794.358
10 0 59260  30102.000000  0   -1174930.860   1867431.830   6514671.825
10 0 59260  30222.000000  0    -420658.643   1383008.061   6724039.338
10 0 59260  30342.000000  0     332149.506    861262.637   6815240.556
10 0 59260  30462.000000  0    1069786.482    311446.322   6786682.797
10 0 59260  30582.000000  0    1778977.821   -256466.072   6638862.953
10 0 59260  30702.000000  0    2447119.713   -831955.999   6374360.183
10 0 59260  30822.000000  0    3062503.187  -1404155.317   5997794.364
10 0 59260  30942.000000  0    3614522.048  -1962050.997   5515751.035
10 0 59260  31062.000000  0    4093859.688  -2494697.543   4936671.359
10 0 59260  31182.000000  0    4492651.179  -2991432.594   4270710.274
10 0 59260  31302.000000  0    4804618.740  -3442093.330   3529563.555
10 0 59260  31422.000000  0    5025177.424  -3837227.589   2726264.407
10 0 59260  31542.000000  0    5151507.256  -4168294.248   1874952.418
10 0 59260  31662.000000  0    5182588.864  -4427848.645    990620.745
10 0 59260  31782.000000  0    5119203.444  -4609708.509     88845.990
10 0 59260  31902.000000  0    4963896.209  -4709096.127   -814494.152
10 0 59260  32022.000000  0    4720903.876  -4722752.010  -1703509.653
10 0 59260  32142.000000  0    4396047.871  -4649017.627  -2562586.079
10 0 59260  32262.000000  0    3996596.736  -4487885.238  -3376665.092
10 0 59260  32382.000000  0    3531101.512  -4241014.371  -4131511.656
10 0 59260  32502.000000  0    3009209.064  -3911714.334  -4813962.762
10 0 59260  32622.000000  0    2441457.215  -3504894.321  -5412152.504
10 0 59260  32742.000000  0    1839058.455  -3026983.465  -5915709.133
10 0 59260  32862.000000  0    1213678.053  -2485824.350  -6315924.352
10 0 59260  32982.000000  0     577208.340  -1890540.540  -6605894.268
10 0 59260  33102.000000  0     -58455.642  -1251379.675  -6780627.749
10 0 59260  33222.000000  0    -681634.028   -579537.170  -6837122.154
10 0 59260  33342.000000  0   -1281070.956    113036.547  -6774408.616
10 0 59260  33462.000000  0   -1846133.242    813843.320  -6593566.251
10 0 59260  33582.000000  0   -2366994.449   1510056.892  -6297705.428
10 0 59260  33702.000000  0   -2834802.270   2188751.695  -5891920.191
10 0 59260  33822.000000  0   -3241828.405   2837138.152  -5383210.669
10 0 59260  33942.000000  0   -3581598.459   3442802.140  -4780374.372
10 0 59260  34062.000000  0   -3848999.810   3993943.622  -4093865.115
10 0 59260  34182.000000  0   -4040363.001   4479609.375  -3335620.724
10 0 59260  34302.000000  0   -4153514.771   4889915.027  -2518863.428
10 0 59260  34422.000000  0   -4187803.744   5216251.828  -1657874.593
10 0 59260  34542.000000  0   -4144096.670   5451473.438   -767746.638
10 0 59260  34662.000000  0   -4024743.400   5590057.716    135885.470
10 0 59260  34782.000000  0   -3833510.970   5628235.809   1037125.086
10 0 59260  34902.000000  0   -3575489.158   5564088.656   1920102.152
10 0 59260  35022.000000  0   -3256968.489   5397605.480   2769263.584
10 0 59260  35142.000000  0   -2885292.592   5130701.530   3569655.851
10 0 59260  35262.000000  0   -2468691.890   4767197.665   4307193.357
10 0 59260  35382.000000  0   -2016102.035   4312762.369   4968909.677
10 0 59260  35502.000000  0   -1536971.992   3774817.044   5543186.309
10 0 59260  35622.000000  0   -1041065.314   3162406.977   6019954.565
10 0 59260  35742.000000  0    -538260.437   2486041.607   6390866.917
10 0 59260  35862.000000  0     -38354.445   1757508.544   6649436.428
10 0 59260  35982.000000  0     449127.020    989665.051   6791145.061
10 0 59260  36102.000000  0     915110.735    196208.993   6813517.193
10 0 59260  36222.000000  0    1351143.653   -608564.593   6716160.063
10 0 59260  36342.000000  0    1749545.679  -1410020.635   6500771.255
10 0 59260  36462.000000  0    2103545.135  -2193449.446   6171111.051
10 0 59260  36582.000000  0    2407394.957  -2944337.308   5732941.814
10 0 59260  36702.000000  0    2656467.884  -3648637.603   5193932.582
10 0 59260  36822.000000  0    2847328.005  -4293036.930   4563530.218
10 0 59260  36942.000000  0    2977778.771  -4865212.457   3852799.523
10 0 59260  37062.000000  0    3046885.711  -5354074.618   3074231.449
10 0 59260  37182.000000  0    3054972.948  -5749989.880   2241524.296
10 0 59260  37302.000000  0    3003592.688  -6044977.801   1369339.553
10 0 59260  37422.000000  0    2895468.926  -6232876.399    473039.033
10 0 59260  37542.000000  0    2734418.153  -6309473.823   -431591.818
10 0 59260  37662.000000  0    2525246.382  -6272602.421  -1328631.679
10 0 59260  37782.000000  0    2273625.372  -6122188.797  -2202313.096
10 0 59260  37902.000000  0    1985952.883  -5860263.438  -3037306.525
10 0 59260  38022.000000  0    1669197.872  -5490927.211  -3818995.851
10 0 59260  38142.000000  0    1330737.822  -5020275.085  -4533734.331
10 0 59260  38262.000000  0     978193.255  -4456283.425  -5169079.415
10 0 59260  38382.000000  0     619261.281  -3808663.873  -5714002.567
10 0 59260  38502.000000  0     261552.262  -3088686.556  -6159071.544
10 0 59260  38622.000000  0     -87566.826  -2308977.173  -6496602.252
10 0 59260  38742.000000  0    -421119.380  -1483292.541  -6720779.863
10 0 59260  38862.000000  0    -732653.789   -626278.655  -6827749.076
10 0 59260  38982.000000  0   -1016363.739    246785.866  -6815673.241
10 0 59260  39102.000000  0   -1267193.352   1120255.843  -6684761.168
10 0 59260  39222.000000  0   -1480925.125   1978392.534  -6437263.783
10 0 59260  39342.000000  0   -1654249.311   2805639.787  -6077439.734
10 0 59260  39462.000000  0   -1784815.098   3586901.563  -5611491.488
10 0 59260  39582.000000  0   -1871261.673   4307815.739  -5047468.648
10 0 59260  39702.000000  0   -1913229.294   4955020.393  -4395140.916
10 0 59260  39822.000000  0   -1911349.723   5516407.399  -3665838.833
10 0 59260  39942.000000  0   -1867215.167   5981356.572  -2872265.115
10 0 59260  40062.000000  0   -1783326.423   6340946.433  -2028280.024
10 0 59260  40182.000000  0   -1663021.846   6588137.258  -1148661.676
10 0 59260  40302.000000  0   -1510387.547   6717918.982   -248846.153
10 0 59260  40422.000000  0   -1330151.193   6727422.653    655346.920
10 0 59260  40542.000000  0   -1127561.405   6615990.708   1548001.784
10 0 59260  40662.000000  0    -908256.139   6385198.548   2413398.080
10 0 59260  40782.000000  0    -678123.108   6038830.401   3236295.514
10 0 59260  40902.000000  0    -443156.693   5582812.781   4002208.033
10 0 59260  41022.000000  0    -209315.304   5025107.382   4697663.860
10 0 59260  41142.000000  0      17619.046   4375560.281   5310447.077
10 0 59260  41262.000000  0     232175.056   3645717.081   5829807.312
10 0 59260  41382.000000  0     429315.550   2848610.724   6246645.737
10 0 59260  41502.000000  0     604548.749   1998520.541   6553668.992
10 0 59260  41622.000000  0     754025.256   1110711.858   6745510.816
10 0 59260  41742.000000  0     874618.790    201158.892   6818819.950
10 0 59260  41862.000000  0     963989.484   -713741.862   6772314.738
10 0 59260  41982.000000  0    1020628.617  -1617466.767   6606805.475
10 0 59260  42102.000000  0    1043884.178  -2493663.249   6325181.482
10 0 59260  42222.000000  0    1033966.859  -3326446.787   5932364.357
10 0 59260  42342.000000  0     991935.496  -4100691.368   5435225.343
10 0 59260  42462.000000  0     919664.261  -4802306.367   4842470.139
10 0 59260  42582.000000  0     819791.429  -5418498.414   4164493.508
10 0 59260  42702.000000  0     695650.061  -5938014.474   3413202.114
10 0 59260  42822.000000  0     551181.942  -6351357.901   2601806.799
10 0 59260  42942.000000  0     390836.272  -6650971.780   1744588.981
10 0 59260  43062.000000  0     219455.945  -6831385.593    856646.153
99
